store,address,Latitude,Longitude,tel
롯데마트 TRU동부산점,부산광역시 기장군 기장읍 기장해안로 147 롯데몰동부산점 3층,35.2188193,129.2313695,051-922-2500
롯데마트 TRU파주점,"경기도 파주시 문발로 302 A블럭 3층(문발동, 롯데프리미엄아울렛)",37.7204096,126.6936224,031-960-2750
롯데마트 marketD수원점,경기도 수원시 권선구 세화로 134 롯데마트,37.2653782,126.9959828,031-8067-2500
롯데마트 강변점,서울특별시 광진구 광나루로56길 85 롯데마트,37.5349372,127.0957088,02-3424-2500
롯데마트 거제점,경상남도 거제시 서간도길 9-9 (옥포동),34.8885012,128.6891835,055-641-2500
롯데마트 검단점,인천광역시 서구 원당대로 581 롯데마트,37.5944905,126.6645642,032-560-2500
롯데마트 경기양평점,경기도 양평군 양평읍 남북로 76 롯데마트,37.4893905,127.5025753,031-8079-2500
롯데마트 계양점,인천광역시 계양구 장제로 822 롯데마트,37.5406983,126.7360097,032-550-2500
롯데마트 고양점,경기도 고양시 덕양구 충장로 150 롯데마트,37.6251676,126.8362978,031-930-7000
롯데마트 광교점,경기도 수원시 영통구 센트럴타운로 85 롯데마트,37.2500467,127.0346118,031-410-2500
롯데마트 광복점,부산광역시 중구 중앙대로 2 롯데마트,35.096715,129.0367482,051-441-2500
롯데마트 구미점,경상북도 구미시 구미대로22길 11 롯데마트,36.1137596,128.3653763,054-440-2500
롯데마트 군산점,전라북도 군산시 수송로 185 롯데마트,35.9647244,126.7163921,063-441-2500
롯데마트 권선점,경기도 수원시 권선구 동수원로 232 롯데마트,37.2500467,127.0346118,031-229-7700
롯데마트 금천점,서울특별시 금천구 시흥대로 291 롯데마트,37.4506854,126.9012586,02-6960-2500
롯데마트 김천점,경상북도 김천시 시청로 80 롯데마트,36.1359303,128.1178844,054-748-2500
롯데마트 김포공항점,서울특별시 강서구 하늘길 38,37.5667733,126.8025118,02-6124-2500
롯데마트 김포한강점,경기도 김포시 김포한강2로 41 장기동. e편한세상 캐널시티,37.640444,126.6774695,031-8049-2500
롯데마트 김해점,경상남도 김해시 김해대로 2330 (부원동),35.2224512,128.8900056,055-632-2500
롯데마트 나주점,전라남도 나주시 내동길 15 (송월동),35.0134842,126.7119553,061-339-3200
롯데마트 남악점,전라남도 무안군 삼향읍 남악로162번길 80 롯데마트,34.8046034,126.4574013,061-740-2500
롯데마트 남원점,전라북도 남원시 향교동 춘향로 96 롯데마트,35.4315495,127.3837685,063-620-2500
롯데마트 노은점,대전광역시 유성구 북유성대로 206 롯데마트,36.3843091,127.3215537,042-525-2500
롯데마트 당진점,충청남도 당진시 정안로 20 롯데마트,36.9055041,126.6462036,041-832-2500
롯데마트 대구율하점,대구광역시 동구 안심로 80 롯데마트,35.86846,128.6934002,053-607-2500
롯데마트 대덕점,대전광역시 유성구 테크노중앙로 14 롯데마트,36.4262288,127.3913592,042-930-2500
롯데마트 덕소점,경기도 남양주시 와부읍 월문천로 33 롯데마트,37.5846917,127.2144896,031-579-7700
롯데마트 동두천점,경기도 동두천시 평화로2169번길 21 (송내동),37.8760279,127.081309,031-830-2500
롯데마트 동래점,부산광역시 동래구 중앙대로 1393 롯데마트,35.2114828,129.0776055,051-668-2500
롯데마트 동부산점,부산광역시 기장군 기장읍 기장해안로 147 롯데마트,35.2188193,129.2313695,051-922-2500
롯데마트 롯데맥스 목포점,전라남도 목포시 원형서로 15 (상동),34.7972245,126.4294761,061-280-2500
롯데마트 롯데맥스 상무점,광주광역시 서구 시청로 40 (치평동),35.1523726,126.8523783,062-602-2500
롯데마트 롯데맥스 송천점,전라북도 전주시 덕진구 송천중앙로 82 (송천동1가),35.8545668,127.120503,063-219-2500
롯데마트 롯데맥스 창원중앙점,경상남도 창원시 성산구 중앙대로 123(중앙동),35.2254304,128.680232,055-240-2500
롯데마트 롯데몰수지점,경기도 용인시 수지구 성복2로 38 롯데마트,37.3173486,127.0657805,031-5174-2500
롯데마트 마산점,경상남도 창원시 마산합포구 신마산시장길 33 롯데마트,35.1813055,128.5607439,055-230-2500
롯데마트 마석점,경기도 남양주시 화도읍 경춘로 1992 롯데마트,37.650166,127.3093975,031-748-2500
롯데마트 부산점,부산광역시 부산진구 신천대로 241 롯데마트,35.1633095,129.0495603,051-608-2500
롯데마트 부평역점,인천광역시 부평구 광장로 16 롯데마트,37.4897746,126.7233082,032-454-2500
롯데마트 부평점,인천광역시 부평구 마장로 296 롯데마트,37.5049762,126.7040634,032-509-2500
롯데마트 사상점,부산광역시 사상구 낙동대로 733 롯데마트,35.1270921,128.9685302,051-329-2500
롯데마트 사하점,부산광역시 사하구 을숙도대로 610 롯데마트,35.0848397,128.9715769,051-603-2500
롯데마트 삼계점,경상남도 창원시 마산회원구 내서읍 경남대로 927 롯데마트,35.2330229,128.5040935,055-719-5200
롯데마트 삼산점,인천광역시 부평구 길주로 623 롯데마트,37.507846,126.7320431,032-363-2500
롯데마트 삼양점,서울특별시 강북구 삼양로 247 롯데마트,37.6254731,127.0177185,02-2248-2500
롯데마트 상당점,충청북도 청주시 상당구 용암북로160번길 60 롯데마트,36.6204046,127.5161182,043-290-7000
롯데마트 상록점,경기도 안산시 상록구 반석로20 롯데마트,37.2965693,126.8619067,031-8086-0800
롯데마트 서대전점,대전광역시 유성구 유성대로 26-37 롯데마트,36.3510743,127.3400659,042-540-2500
롯데마트 서산점,충청남도 서산시 충의로 27 롯데마트,36.7735212,126.4386374,041-665-2500
롯데마트 서울역점,서울특별시 중구 청파로 426 롯데마트,37.5574069,126.9694999,02-390-2500
롯데마트 서청주점,충청북도 청주시 흥덕구 2순환로 1004 롯데마트,36.6565247,127.493741,043-254-2500
롯데마트 서초점,서울특별시 서초구 서초대로 38길 12 롯데마트,37.4895766,127.0069383,02-918-2500
롯데마트 석사점,강원도 춘천시 세실로 108 롯데마트,37.8668046,127.7591268,033-260-7700
롯데마트 선부점,경기도 안산시 단원구 달미로 64 64,37.3393138,126.815899,031-487-2500
롯데마트 성정점,충청남도 천안시 서북구 성정두정로 1 롯데마트,36.8262462,127.1400882,041-553-2500
롯데마트 송도점,인천광역시 연수구 컨벤시아대로 177 롯데마트,37.392921,126.646044,032-222-2500
롯데마트 송파점,서울특별시 송파구 중대로 80 롯데마트,37.4917416,127.1178672,02-2295-2500
롯데마트 수완점,광주광역시 광산구 장신로 98 롯데마트,35.1902505,126.8209779,062-975-2500
롯데마트 수원점,경기도 수원시 권선구 세화로 134 (서둔동),37.2702684,126.9846054,031-8067-2500
롯데마트 시티세븐점,경상남도 창원시 의창구 원이대로 320 롯데마트,35.239659,128.6544233,055-385-2500
롯데마트 시화점,경기도 시흥시 마유로238번길 26 롯데마트,37.3374862,126.7304654,031-496-7700
롯데마트 시흥배곧점,경기도 시흥시 서울대학로278번길 67 정왕동 동원아파트 맞은편,37.3623488,126.7570973,031-299-2500
롯데마트 시흥점,경기도 시흥시 비둘기공원로 28 롯데마트,37.4439439,126.7913895,031-435-7500
롯데마트 신갈점,경기도 용인시 기흥구 중부대로 375 (신갈동),37.2832422,127.103435,031-442-2500
롯데마트 아산터미널점,충청남도 아산시 번영로 225 롯데마트,36.7846016,127.0160054,041-537-2500
롯데마트 안산점,경기도 안산시 상록구 충장로 427 롯데마트,37.3171241,126.8479131,031-508-2500
롯데마트 안성점,경기도 안성시 공도읍 서동대로 4478 롯데마트,37.0078165,127.198962,031-691-2500
롯데마트 양덕점,경상남도 창원시 마산회원구 삼호로 80 롯데마트,35.2239481,128.585122,055-243-2500
롯데마트 양평점,서울특별시 영등포구 선유로 138 롯데마트,37.5260404,126.8917337,02-450-2500
롯데마트 여수점,전라남도 여수시 국포1로 36 36 롯데마트,34.7283116,127.7215556,061-640-2500
롯데마트 여천점,전라남도 여수시 무선로 187 롯데마트,34.7768534,127.6514717,061-650-2500
롯데마트 연수점,인천광역시 연수구 청능대로 87 롯데마트,37.4150567,126.6751684,032-810-2500
롯데마트 영종도점,인천광역시 중구 흰바위로 51 롯데마트 영종도점,37.4925791,126.4912589,032-747-2500
롯데마트 영통점,경기도 수원시 영통구 봉영로 1579 롯데마트,37.2527036,127.0716535,031-290-4000
롯데마트 오산점,경기도 오산시 경기대로 271 롯데마트,37.1494108,127.0730348,031-371-2500
롯데마트 울산점,울산광역시 남구 삼산로 74 롯데마트,35.5340072,129.3159148,052-228-2500
롯데마트 웅상점,경상남도 양산시 삼호1길 34 롯데마트,35.4127076,129.1670202,055-379-2500
롯데마트 원주점,강원도 원주시 봉화로 1 롯데마트,37.3523279,127.9290782,033-749-2500
롯데마트 월드컵점,광주광역시 서구 금화로 240 월드컵경기장 內,35.1336571,126.8748604,062-610-2500
롯데마트 월드타워점,서울특별시 송파구 신천동 올림픽로 300 롯데마트,37.5200705,127.0995,02-3213-2777
롯데마트 은평점,서울특별시 은평구 통일로 1050 롯데마트,37.6123992,126.9292744,02-2097-2500
롯데마트 의왕점,경기도 의왕시 계원대학로 7 롯데마트,37.3805035,126.9728853,031-470-2500
롯데마트 이천점,경기도 이천시 구만리로 191 롯데마트,37.2731391,127.4544047,031-8011-2500
롯데마트 익산점,전라북도 익산시 무왕로 1053 롯데마트,35.9592947,126.9671608,063-830-2500
롯데마트 인천터미널점,"인천광역시 미추홀구 연남로 35, B1층(관교동, 롯데마트 인천터미널점)",37.4408903,126.7014122,032-242-6000
롯데마트 장암점,경기도 의정부시 장곡로 224 롯데마트,37.7236292,127.0530165,031-849-2500
롯데마트 장유점,경상남도 김해시 장유면 번화1로56번길 15 롯데마트,35.1930323,128.8013109,055-311-2500
롯데마트 전주점,전라북도 전주시 완산구 우전로 240 롯데마트,35.8163187,127.1025147,063-249-2500
롯데마트 정읍점,전라북도 정읍시 벚꽃로 85 롯데마트,35.579284,126.839837,063-570-2500
롯데마트 제주점,제주특별자치도 제주시 연북로 1 롯데마트,33.4824201,126.4819325,064-798-2500
롯데마트 제천점,충청북도 제천시 용두대로11길 10 롯데마트,37.1372549,128.1987938,043-647-2500
롯데마트 제타플렉스,서울특별시 송파구 올림픽로 240 롯데마트 제타플렉스,37.5115176,127.0963012,02-411-8025
롯데마트 주엽점,경기도 고양시 일산서구 중앙로 1496 롯데마트,37.6733388,126.7553321,031-913-2500
롯데마트 중계점,서울특별시 노원구 노원로 330 롯데마트,37.6466623,127.0709672,02-2092-2500
롯데마트 진장점,울산광역시 북구 진장유통로 64 롯데마트,35.5760993,129.359324,052-240-2500
롯데마트 진주점,경상남도 진주시 동진로 440 롯데마트,35.1785913,128.1497587,055-790-2500
롯데마트 진해점,경상남도 창원시 진해구 진해대로 762 롯데마트,35.1279791,128.7449228,055-541-2500
롯데마트 천천점,경기도 수원시 장안구 만석로19번길 25-10 롯데마트,37.2960979,126.9824075,031-240-2500
롯데마트 첨단점,광주광역시 광산구 첨단강변로99번길 22 롯데마트,35.2163562,126.8520507,062-962-2500
롯데마트 청라점,인천광역시 서구 청라커낼로 252 롯데마트,37.5308509,126.6469619,032-590-2500
롯데마트 청량리점,서울특별시 동대문구 왕산로 214 롯데마트,37.5792928,127.0479007,02-3298-2500
롯데마트 청주점,충청북도 청주시 흥덕구 풍산로 15 롯데마트,36.6268218,127.4317494,043-236-2500
롯데마트 춘천점,강원도 춘천시 방송길 84 롯데마트,37.8685399,127.7180797,033-240-2500
롯데마트 충주점,충청북도 충주시 봉계1길 49 충주공용버스터미널,36.9819821,127.9145554,043-841-2500
롯데마트 통영점,경상남도 통영시 무전대로 65 롯데마트,34.8607178,128.4282532,055-640-2500
롯데마트 판교점,경기도 성남시 분당구 대왕판교로606번길 58 롯데마트,37.3964436,127.1117012,031-701-2500
롯데마트 평택점,경기도 평택시 평택5로 30 롯데마트 평택점,36.9883806,127.11173,031-8053-2500
롯데마트 포항점,경상북도 포항시 남구 지곡로 247 롯데마트,36.028379,129.3243123,054-222-2500
롯데마트 행당역점,서울특별시 성동구 행당로 82 한진타운상가 B2~B3층,37.5555573,127.0289482,02-2290-7000
롯데마트 홍성점,충청남도 홍성군 홍성읍 조양로247번길 9 롯데마트,36.6011474,126.6765497,041-339-2500
롯데마트 화명점,부산광역시 북구 화명대로 47 롯데마트,35.2351734,129.01302,051-604-2500
롯데마트 화정점,경기도 고양시 덕양구 화중로 66 롯데마트,37.6329073,126.8311083,031-947-2500
이마트 가든5점,서울특별시 송파구 충민로 10,37.4782316,127.1193703,02-411-1234
이마트 가양점,서울특별시 강서구 양천로 559,37.5578966,126.8622978,02-2101-1234
이마트 강릉점,강원도 강릉시 경강로 2398-10,37.7705833,128.9226176,033-649-1234
이마트 검단점,인천광역시 서구 서곶로 754,37.5855344,126.6771944,032-440-1234
이마트 경기광주점,경기도 광주시 광주대로 30,37.409522,127.2612286,031-8026-1234
이마트 경산점,경상북도 경산시 옥산로 227,35.8348664,128.720196,053-940-1234
이마트 계양점,인천광역시 계양구 봉오대로 785 이마트계양점,37.5309793,126.736883,032-717-1234
이마트 과천점,경기도 과천시 별양상가3로 11,37.4262262,126.9918557,02-6445-4123
이마트 광교점,경기도 수원시 광교로 191(이의동),37.2875669,127.0547251,031-328-9123
이마트 광명소하점,경기도 광명시 소하로 97,37.446547,126.8844653,02-6918-1234
이마트 광명점,경기도 광명시 오리로 970 지하2층,37.4794109,126.8556457,02-2676-1234
이마트 광산점,광주광역시 광산구 사암로 172 이마트 광산점,35.1599796,126.8086126,062-949-1234
이마트 광주점,광주광역시 서구 죽봉대로 61,35.1587752,126.8820833,062-360-0123
이마트 구로점,서울특별시 구로구 디지털로 32길 43,37.4843537,126.89788,02-2009-1234
이마트 구미점,경상북도 구미시 구미대로 256,36.1094691,128.3649177,054-467-1234
이마트 군산점,전라북도 군산시 구암3.1로 137,35.9827419,126.7348656,063-472-1234
이마트 금정점,"부산광역시 금정구 중앙대로1841번길 24 (구서동, (주)이마트금정점)",35.2500198,129.0907241,051-606-1234
이마트 김천점,경상북도 김천시 시청로 75,36.1349183,128.1168352,054-420-1234
이마트 김포한강점,경기도 김포시 김포한강7로 71 구주소)경기 김포시 구래동 6880-9,37.6372695,126.6313215,031-990-7123
이마트 김해점,경상남도 김해시 김해대로 2232 (외동) 이마트 김해점,35.2302741,128.8718129,055-310-1234
이마트 남양주점,경기도 남양주시 늘을2로 27,37.6549733,127.2430664,031-590-1234
이마트 남원점,전라북도 남원시 남문로 385-16,35.4076544,127.3746323,063-620-3123
이마트 다산점,경기도 남양주시 도농로 24,37.60841,127.1586827,031-579-1234
이마트 대전터미널점,대전광역시 동구 동서대로 1689,36.3502842,127.4366222,042-615-1234
이마트 동구미점,경상북도 구미시 이계북로 23,36.1063453,128.4047254,054-480-1234
이마트 동백점,경기도 용인시 기흥구 동백죽전대로 444,37.2779159,127.151605,031-546-1234
이마트 동인천점,인천광역시 중구 인중로 134,37.4664855,126.6291163,032-451-1234
이마트 동탄점,경기도 화성시 동탄중앙로 376,37.2142093,127.0796741,031-647-1234
이마트 동해점,강원도 동해시 천곡로 100,37.5239064,129.1171009,033-539-7123
이마트 둔산점,대전광역시 서구 둔산북로 41,36.3563352,127.3777808,042-479-1234
이마트 마산점,경상남도 창원시 마산합포구 서성로 3,35.1978245,128.5695328,055-711-1234
이마트 마포점,서울특별시 마포구 백범로 212,37.5424268,126.9533694,02-2197-1234
이마트 만촌점,"대구광역시 수성구 동원로 136 (만촌동, 이마트만촌점)",35.8711227,128.6372145,053-602-1234
이마트 명일점,서울특별시 강동구 고덕로 276,37.5546516,127.1557517,02-2145-1234
이마트 목동점,서울특별시 양천구 오목로 299,37.5257763,126.8703272,02-6923-1234
이마트 목포점,전라남도 목포시 옥암로 138,34.8116126,126.4252535,061-260-1234
이마트 묵동점,서울특별시 중랑구 동일로 932,37.613797,127.0775029,02-2083-1234
이마트 문현점,부산광역시 남구 전포대로91번길 47,35.1443594,129.0642591,051-609-1234
이마트 미아점,서울특별시 성북구 도봉로 17 (길음동),37.6108648,127.0296051,02-944-1234
이마트 반야월점,대구광역시 동구 안심로 389-2,35.8708661,128.7274592,053-665-1234
이마트 별내점,경기도 남양주시 순화궁로 167 (별내동),37.6667668,127.1195811,031-550-1234
이마트 보라점,경기도 용인시 기흥구 한보라1로 92,37.2475155,127.1050578,031-8009-1234
이마트 보령점,충청남도 보령시 해안로 25,36.3439697,126.5888748,041-640-1234
이마트 봉선점,광주광역시 남구 봉선로 198,35.1223552,126.9160689,062-611-1114
이마트 부천점,"경기도 부천시 부천로 1 (심곡본동, 부천역사쇼핑몰) 이마트 부천점",37.4840296,126.7826654,032-610-5123
이마트 분당점,경기도 성남시 분당구 불정로 134,37.3587618,127.1197443,031-710-1234
이마트 사상점,부산광역시 사상구 광장로 17,35.1642292,128.9789053,051-329-1234
이마트 사천점,경상남도 사천시 삼천포대교로 591,34.9508279,128.0773211,055-850-1234
이마트 산본점,경기도 군포시 산본로 347,37.3610506,126.9314088,031-450-1234
이마트 상봉점,서울특별시 중랑구 상봉로 118,37.596438,127.0935903,02-490-1234
이마트 상주점,경상북도 상주시 경상대로 3141,36.4277518,128.1510085,054-537-1234
이마트 서귀포점,제주특별자치도 서귀포시 일주동로 9209,33.2484335,126.5092187,064-797-1234
이마트 서산점,충청남도 서산시 서해로 3685,36.7885297,126.4785316,041-670-1234
이마트 서수원점,경기도 수원시 권선구 수인로 291,37.2825088,126.9701183,031-895-1234
이마트 성남점,경기도 성남시 수정구 수정로 201,37.4442613,127.1413754,031-8023-1234
이마트 성서점,대구광역시 달서구 이곡동로 24,35.8533378,128.5101866,053-605-1234
이마트 성수점,서울특별시 성동구 뚝섬로 379,37.5399389,127.0531674,02-3408-1234
이마트 세종점,세종특별자치시 금송로 687,36.4709543,127.2511952,044-902-1234
이마트 속초점,강원도 속초시 설악금강대교로 12,38.2049653,128.5935724,033-630-1234
이마트 수색점,"서울특별시 은평구 수색로 217 (수색동, 디엠씨 자이1단지(DMC 자이1))",37.5796984,126.8987547,02-6943-1234
이마트 수서점,서울특별시 강남구 광평로 280,37.4872829,127.1031088,02-451-6123
이마트 수원점,"경기도 수원시 권선구 경수대로 270 (권선동, 주차빌딩)",37.2503146,127.0208435,031-207-1234
이마트 수지점,경기도 용인시 수지구 수지로 203 (신봉동),37.3196884,127.0833256,031-270-1234
이마트 순천점,전라남도 순천시 팔마로 191,34.942448,127.508434,061-749-1234
이마트 시화점,경기도 시흥시 정왕대로 210,37.345879,126.7368994,031-496-4123
이마트 신도림점,서울특별시 구로구 새말로 97 테크노마트 지하2층,37.5070431,126.8902185,02-6715-1234
이마트 신월점,서울특별시 양천구 화곡로 59,37.5397142,126.8285127,02-6716-1234
이마트 신제주점,제주특별자치도 제주시 1100로 3348,33.4849511,126.4804897,064-798-1234
이마트 신촌점,"서울특별시 마포구 신촌로 94 (노고산동, 그랜드플라자)",37.5549516,126.9359732,02-6288-1234
이마트 아산점,충청남도 아산시 온천대로 1678,36.7763726,127.0217319,041-422-1234
이마트 안동점,경상북도 안동시 옥동 1길2,36.5583272,128.699306,054-850-1234
이마트 안산고잔점,경기도 안산시 단원구 원포공원1로 46,37.3031255,126.812847,031-599-1234
이마트 안성점,경기도 안성시 중앙로 246,37.0126934,127.2559145,031-686-1234
이마트 안양점,"경기도 안양시 동안구 관악대로 104 (비산동, 부방유통) 이마트 안양점",37.3984221,126.9348808,031-380-3300
이마트 양산점,경상남도 양산시 양산역6길 12,35.3369609,129.0262743,055-371-8123
이마트 양재점,서울특별시 서초구 매헌로 16,37.4629528,127.0369582,02-2155-1234
이마트 양주점,경기도 양주시 평화로 1713,37.8417466,127.0538748,031-860-0123
이마트 에코시티점,"전라북도 전주시 덕진구 세병서로 9 (송천동2가, 전주 에코시티 이마트) (세병서로 9)",35.8723104,127.1394932,063-906-5100
이마트 여수점,전라남도 여수시 좌수영로 277,34.7579142,127.7150203,061-650-1234
이마트 여의도점,서울특별시 영등포구 여의동로3길 10,37.5181371,126.9261297,02-2280-1234
이마트 여주점,경기도 여주시 세종로 151,37.2844549,127.6354062,031-887-6123
이마트 역삼점,서울특별시 강남구 역삼로 310,37.4992239,127.048424,02-6908-1234
이마트 연수점,인천광역시 연수구 경원대로 184,37.4041584,126.681106,032-820-1234
이마트 연제점,부산광역시 연제구 연수로 89 이마트 연제점,35.1759284,129.0812728,051-860-1234
이마트 영등포점,서울특별시 영등포구 영중로 15,37.517007,126.9041419,02-3468-1234
이마트 영천점,경상북도 영천시 최무선로 83,35.9581756,128.910111,054-330-1234
이마트 오산점,경기도 오산시 경기대로 181,37.1406271,127.0727154,031-369-7123
이마트 왕십리점,서울특별시 성동구 왕십리광장로 17 이마트 왕십리점,37.5616111,127.0385592,02-6438-1234
이마트 용산점,서울특별시 용산구 한강대로23길 55,37.5288539,126.9640447,02-6363-2200
이마트 용인점,경기도 용인시 처인구 명지로 53 이마트 용인점,37.231437,127.189175,031-326-1234
이마트 울산점,울산광역시 남구 남중로 48,35.5380178,129.3483974,052-220-1234
이마트 원주점,강원도 원주시 북원로 1928,37.3206214,127.9190288,033-749-1234
이마트 월계점,서울특별시 노원구 마들로3길 15 이마트 월계점,37.6265118,127.0619079,02-2092-1234
이마트 월배점,대구광역시 달서구 진천로 92 이마트 월배점,35.817143,128.5236661,053-607-1234
이마트 은평점,서울특별시 은평구 은평로 111 이마트 은평점,37.6007771,126.9204992,02-380-1234
이마트 의왕점,"경기도 의왕시 경수대로 262 (오전동, 서해그랑블) B1F~B2F 이마트의왕점",37.3500854,126.97331,031-8063-1234
이마트 의정부점,경기도 의정부시 민락로 210,37.7533135,127.1073975,031-850-1234
이마트 이수점,서울특별시 동작구 사당로 300 이수자이 B1,37.4843975,126.9804278,02-595-1234
이마트 이천점,경기도 이천시 이섭대천로 1440-50,37.2938305,127.4590649,031-644-8123
이마트 익산점,전라북도 익산시 평동로 705,35.9301951,126.9576491,063-860-1234
이마트 일산점,경기도 고양시 일산동구 중앙로 1124,37.6477852,126.7824175,031-900-1234
이마트 자양점,서울특별시 광진구 아차산로 272,37.5376127,127.0726183,02-2024-1234
이마트 전주점,전라북도 전주시 완산구 당산로 111,35.832564,127.1204648,063-259-1234
이마트 제주점,제주특별자치도 제주시 탑동로 38,33.5179985,126.5212165,064-729-1234
이마트 제천점,충청북도 제천시 장평천로 11,37.1231363,128.2228903,043-641-1234
이마트 죽전점,경기도 용인시 수지구 포은대로 552,37.3252976,127.1100001,031-888-1234
이마트 중동점,"경기도 부천시 석천로 188 (중동, (주)신세계이마트중동점)",37.504044,126.763924,032-718-1234
이마트 진접점,경기도 남양주시 진접읍 금강로유연들1길 154,37.7088559,127.1820536,031-522-1234
이마트 진주점,경상남도 진주시 진양호로 477,35.1915588,128.0774222,055-749-1234
이마트 창동점,서울특별시 도봉구 노해로 65길 4,37.6516821,127.046933,02-901-1234
이마트 창원점,경상남도 창원시 성산구 원이대로 608,35.2266376,128.6801916,055-211-1234
이마트 천안서북점,충청남도 천안시 서북구 삼성대로 20,36.838181,127.1578183,041-580-9123
이마트 천안점,충청남도 천안시 서북구 충무로 187,36.7958771,127.127097,041-620-1234
이마트 천안터미널점,충청남도 천안시 동남구 만남로 43,36.8196847,127.1543899,041-411-1234
이마트 천호점,서울특별시 강동구 천호대로 1017,37.5386477,127.1253669,02-2224-1234
이마트 청계천점,서울특별시 중구 청계천로 400,37.5708733,127.0213284,02-2290-1234
이마트 청주점,충청북도 청주시 서원구 청남로 1853,36.60086,127.4748031,043-210-1234
이마트 춘천점,강원도 춘천시 경춘로 2353,37.8637455,127.718073,032-240-1234
이마트 충주점,충청북도 충주시 중원대로 3420,36.9721214,127.9237718,043-841-1234
이마트 칠성점,대구광역시 북구 침산로 93,35.8851982,128.5898126,053-609-1234
이마트 킨텍스점,경기도 고양시 일산서구 킨텍스로 171(대화동),37.6747572,126.7557402,031-936-1123
이마트 태백점,강원도 태백시 굴거랑길 4,37.1999632,128.9618174,033-580-1234
이마트 통영점,경상남도 통영시 광도면 죽림4로 9,34.8871307,128.4180271,055-650-1234
이마트 파주운정점,경기도 파주시 한울로 123,37.7106854,126.7454839,031-931-2123
이마트 파주점,경기도 파주시 당하길 10,37.7469201,126.751036,031-950-1234
이마트 평촌점,경기도 안양시 동안구 시민대로 300,37.3947296,126.9637071,031-687-1234
이마트 평택점,경기도 평택시 영신로 29,37.0214562,127.0755828,031-371-1234
이마트 포천점,경기도 포천시 호국로 915,37.8479291,127.1608341,031-540-1234
이마트 포항이동점,경상북도 포항시 북구 대이로 188,36.0319273,129.3388313,054-721-1234
이마트 포항점,경상북도 포항시 남구 냉천로 10,35.9920307,129.3980639,054-223-1234
이마트 풍산점,경기도 고양시 일산동구 무궁화로 237,37.6688149,126.7791456,031-910-1234
이마트 하남점,경기도 하남시 덕풍서로 70,37.5528229,127.2054114,031-524-1234
이마트 하월곡점,"서울특별시 성북구 종암로 167 (하월곡동, 동일하이빌뉴시티)",37.6058335,127.0309281,02-6936-1234
이마트 해운대점,부산광역시 해운대구 좌동순환로 511,35.1659937,129.1673879,051-608-1234
이마트 화성봉담점,경기도 화성시 봉담읍 효행로 278,37.2233131,126.9727189,031-228-1234
이마트 화정점,경기도 고양시 덕양구 백양로 79,37.632646,126.8333839,031-995-1234
이마트 흥덕점,경기도 용인시 기흥구 흥덕중앙로 60,37.2757153,127.0733398,031-8021-1234
홈플러스 가양점,서울특별시 강서구 양천로 431,37.5642454,126.8499416,02-2063-2080
홈플러스 가좌점,인천광역시 서구 가정로 151번길 11,37.4975674,126.6706903,032-453-8000
홈플러스 간석점,인천광역시 남동구 경원대로 971,37.4695239,126.6890686,032-870-8000
홈플러스 강동점,서울특별시 강동구 양재대로 1571(메르디안 쇼핑센터),37.5456582,127.1422439,02-3400-8000
홈플러스 강릉점,강원도 강릉시 경강로 2120,37.7556587,128.8986211,033-649-8000
홈플러스 강서점,서울특별시 강서구 화곡로 398,37.5586315,126.8544319,02-2660-8000
홈플러스 거제점,경상남도 거제시 장평로 12,34.8911104,128.616421,055-686-8000
홈플러스 경기하남점,경기도 하남시 하남대로 747,37.5379631,127.2125925,031-777-7000
홈플러스 경산점,경상북도 경산시 경안로 288,35.8291168,128.734837,053-715-8000
홈플러스 경주점,경상북도 경주시 공단로 97,35.8736152,129.2246191,054-770-8000
홈플러스 계룡점,충청남도 계룡시 계룡대로 304,36.2739802,127.2571515,042-550-8000
홈플러스 계산점,인천광역시 계양구 오조산 공원로 14,37.5394297,126.736176,032-551-2080
홈플러스 고양터미널점,경기도 고양시 일산동구 중앙로 1036,37.6432013,126.7897215,031-936-7800
홈플러스 광양점,전라남도 광양시 항만11로 70,34.9285758,127.6942947,061-760-8000
홈플러스 광주계림점,광주광역시 동구 무등로 314,35.1614033,126.9166696,062-530-8000
홈플러스 광주하남점,광주광역시 광산구 용아로 390,35.1779828,126.8054265,062-616-8000
홈플러스 구미점,경상북도 구미시 구미대로 174,36.1027409,128.3637515,054-459-8000
홈플러스 구월점,인천광역시 남동구 예술로 198,37.4516923,126.7019408,032-428-2080
홈플러스 금천점,서울특별시 금천구 시흥대로 391,37.4686493,126.8968106,02-890-8000
홈플러스 김제점,전라북도 김제시 금성로 114,35.7997275,126.9028233,063-540-8000
홈플러스 김포점,경기도 김포시 중봉로 14,37.6240028,126.6987451,031-999-8000
홈플러스 김포풍무점,경기도 김포시 풍무로 167,37.6099507,126.7236531,031-999-0000
홈플러스 김해점,경상남도 김해시 김해대로 2078,35.2418908,128.8701192,055-320-8000
홈플러스 남대구점,대구광역시 남구 대명로 116,35.8388221,128.570119,053-659-8000
홈플러스 내당점,대구광역시 서구 달구벌대로 1821,35.8606036,128.5635906,053-567-2080
홈플러스 논산점,충청남도 논산시 시민로 187,36.1833874,127.0981892,041-731-8000
홈플러스 대구수성점,대구광역시 수성구 동대구로 95,35.83871,128.6230423,053-760-8000
홈플러스 대전가오점,대전광역시 동구 은어송로 72,36.3069634,127.4579836,042-281-8000
홈플러스 동광주점,광주광역시 북구 동문대로 200,35.1794552,126.9304542,062-250-8000
홈플러스 동대문점,서울특별시 동대문구 천호대로 133,37.5745108,127.0387578,02-2173-8000
홈플러스 동대전점,대전광역시 동구 한밭대로 1282,36.3537971,127.4373712,042-608-8000
홈플러스 동래점,부산광역시 동래구 중앙대로 1523,35.2212587,129.0856203,051-559-8000
홈플러스 동수원점,경기도 수원시 팔달구 효원로 257,37.2627412,127.0301178,031-231-8000
홈플러스 동청주점,충청북도 청주시 청원구 충청대로 114 지하1층,36.6665479,127.4943746,043-290-8000
홈플러스 동촌점,대구광역시 동구 동촌로 127,35.8861564,128.6556698,053-559-2080
홈플러스 마산점,경상남도 창원시 마산회원구 삼호로 56,35.2226108,128.5857659,055-259-8000
홈플러스 면목점,서울특별시 중랑구 사가정로 332 (면목동),37.5808178,127.0798833,02-437-2080
홈플러스 목동점,서울특별시 양천구 목동서로 170,37.5302083,126.8732314,02-2644-2080
홈플러스 목포점,전라남도 목포시 영산로 313,34.8059169,126.3996951,061-241-8000
홈플러스 문경점,경상북도 문경시 모전로 65,36.5873247,128.1904469,054-559-8000
홈플러스 문화점,대전광역시 중구 계백로 1690,36.3203974,127.407634,042-226-2080
홈플러스 밀양점,경상남도 밀양시 점필재로 45,35.4889672,128.7407476,055-359-8000
홈플러스 방학점,서울특별시 도봉구 도봉로 678,37.6648183,127.0435994,02-912-2080
홈플러스 병점점,경기도 화성시 경기대로 985,37.2037172,127.0367495,031-283-2080
홈플러스 보령점,충청남도 보령시 명암1길 17,36.3439451,126.6139514,041-939-8000
홈플러스 부산감만점,부산광역시 남구 우암로 124,35.1216043,129.0822317,051-609-8000
홈플러스 부산반여점,부산광역시 해운대구 선수촌로21번길 37 (반여동),35.1964738,129.1157438,051-509-8000
홈플러스 부산연산점,부산광역시 연제구 연산동 105-1,35.1915763,129.089041,051-850-8000
홈플러스 부산정관점,부산광역시 기장군 정관면 정관5로 50,35.3230993,129.1763385,051-519-8200
홈플러스 부천상동점,경기도 부천시 원미구 길주로 118,37.5035125,126.7550458,032-650-8000
홈플러스 부천소사점,경기도 부천시 소사구 경인로 532,37.4848631,126.8142546,032-610-8000
홈플러스 부천여월점,경기도 부천시 오정구 소사로 663,37.5157838,126.8023814,032-680-8000
홈플러스 북수원점,경기도 수원시 장안구 경수대로 930,37.3027312,127.0087987,031-259-8000
홈플러스 분당오리점,경기도 성남시 분당구 구미동 159,37.3400065,127.1069645,031-884-2080
홈플러스 삼척점,강원도 삼척시 중앙로 258,37.4464129,129.1682996,033-571-8000
홈플러스 삼천포점,경상남도 사천시 중앙로 165,34.9404593,128.0799804,055-831-8000
홈플러스 상인점,대구광역시 달서구 월배로 183,35.8183052,128.5332096,053-380-8000
홈플러스 서귀포점,제주특별자치도 서귀포시 중앙로 180,33.2604879,126.5600101,064-731-8114
홈플러스 서대전점,대전광역시 유성구 대정로 23,36.3136886,127.3189679,042-540-8000
홈플러스 서면점,부산광역시 부산진구 동천로 4,35.1495471,129.0648567,051-644-2080
홈플러스 서부산점,부산광역시 사상구 광장로 7,35.1643625,128.9780222,051-319-8000
홈플러스 서수원점,경기도 수원시 권선구 금곡동 160,37.2741197,126.9546915,031-8019-1000
홈플러스 서울남현점,서울특별시 관악구 과천대로 909,37.471482,126.9826404,02-6948-8000
홈플러스 서울상봉점,서울특별시 중랑구 망우로 353,37.5977195,127.0932913,02-6922-8100
홈플러스 성서점,대구광역시 달서구 달구벌대로 1467,35.8494607,128.5274266,053-550-8000
홈플러스 세종점,세종특별자치시 절재로 154,36.5073954,127.2582255,044-715-8000
홈플러스 센텀시티점,부산광역시 해운대구 센텀동로 6,35.1709359,129.1337096,051-709-8000
홈플러스 송탄점,경기도 평택시 경기대로 1103,37.0449989,127.0595265,031-8053-8000
홈플러스 순천점,전라남도 순천시 신월큰길 10,34.9612098,127.5203199,061-729-8000
홈플러스 순천풍덕점,전라남도 순천시 팔마로 222,34.939919,127.5087775,061-746-2080
홈플러스 시화점,경기도 시흥시 희망공원로 269,37.3451537,126.7252272,031-310-8000
홈플러스 시흥점,서울특별시 금천구 시흥대로 201,37.4519767,126.900714,02-895-2080
홈플러스 신내점,서울특별시 중랑구 신내로 201,37.6157539,127.0937534,02-2024-8000
홈플러스 신도림점,서울특별시 구로구 경인로 661,37.5093957,126.8877258,02-2618-2080
홈플러스 아시아드점,부산광역시 연제구 종합운동장로 7,35.1913249,129.064287,051-500-8000
홈플러스 안동점,경상북도 안동시 경동로 656,36.5548968,128.7551302,054-840-8300
홈플러스 안산고잔점,경기도 안산시 단원구 광덕대로 175,37.3118792,126.828927,031-445-2080
홈플러스 안산선부점,경기도 안산시 단원구 삼일로 316,37.3337344,126.8125731,031-400-8000
홈플러스 안양점,경기도 안양시 동안구 엘에스로 92,37.3710995,126.9509572,031-459-2080
홈플러스 야탑점,경기도 성남시 분당구 성남대로925번길 16,37.4130682,127.1272313,031-705-2080
홈플러스 영도점,부산광역시 영도구 대교로14번길 57,35.0959061,129.0442397,051-419-8000
홈플러스 영등포점,서울특별시 영등포구 당산로 42,37.5181712,126.8959156,02-2165-8000
홈플러스 영주점,경상북도 영주시 대학로 29,36.8091234,128.6212585,054-630-8000
홈플러스 영통점,경기도 수원시 영통구 봉영로 1576,37.251781,127.0725948,031-201-8000
홈플러스 오산점,경기도 오산시 수청동 252,37.1701788,127.0615097,031-8077-8800
홈플러스 오창점,충청북도 청원군 오창읍 중심상업1로 8-11,36.7129571,127.4281238,043-249-8000
홈플러스 울산남구점,울산광역시 남구 수암로 148,35.5264357,129.3227174,052-270-8000
홈플러스 울산동구점,울산광역시 동구 방어진 순환도로 637,35.4989324,129.4274814,052-230-8000
홈플러스 울산북구점,울산광역시 북구 신답로 26,35.6301104,129.3448376,052-293-2080
홈플러스 울산점,울산광역시 중구 번영로 475,35.5644023,129.334889,052-290-8000
홈플러스 원주점,강원도 원주시 치악로 1489,37.2430762,128.0626989,033-769-8700
홈플러스 원천점,경기도 수원시 영통구 중부대로 437,37.2700194,127.0635891,031-252-2080
홈플러스 월곡점,서울특별시 성북구 화랑로 76,37.6017142,127.0404475,02-3669-8000
홈플러스 월드컵점,서울특별시 마포구 성산동 515 홈플러스월드컵점,37.5677584,126.8981147,02-312-2080
홈플러스 유성점,대전광역시 유성구 한밭대로 502,36.3584437,127.3542548,042-841-2080
홈플러스 의정부점,경기도 의정부시 청사로 38,37.7521309,127.0710005,031-850-8000
홈플러스 익산점,전라북도 익산시 무왕로 1035,35.9592947,126.9671608,063-859-8000
홈플러스 인천논현점,인천광역시 남동구 청능대로 596,37.4004201,126.725561,032-455-8000
홈플러스 인천송도점,인천광역시 연수구 송도동 168-3,37.3839118,126.6438546,032-834-8543
홈플러스 인천숭의점,인천광역시 남구 석정로 51,37.4649629,126.6706778,032-719-2000
홈플러스 인천연수점,인천광역시 연수구 청능대로 210,37.4136276,126.6759721,032-430-8000
홈플러스 인천청라점,인천광역시 서구 중봉대로 587,37.5208488,126.6485304,032-723-8800
홈플러스 인하점,인천광역시 미추홀구 소성로 6,37.4470266,126.650843,032-763-2080
홈플러스 일산점,경기도 고양시 일산동구 중앙로 1275번길 64,37.6590106,126.7688507,031-925-2080
홈플러스 작전점,인천광역시 계양구 계양대로 27,37.5261357,126.7212508,032-540-8000
홈플러스 잠실점,서울특별시 송파구 올림픽로35가길 16,37.5213517,127.1026097,02-3468-8000
홈플러스 장림점,부산광역시 사하구 다대로 225,35.0822777,128.9782104,051-466-2080
홈플러스 전주완산점,전라북도 전주시 완산구 기린대로 170,35.8237098,127.1500613,063-263-2080
홈플러스 전주점,전라북도 전주시 덕진구 백제대로 771,35.8475063,127.1529005,063-249-8000
홈플러스 전주효자점,전라북도 전주시 완산구 용머리로 31,35.806564,127.1140752,063-281-8000
홈플러스 조치원점,세종특별자치시 조치원읍 허만석로 60,36.5863076,127.2977319,044-861-8100
홈플러스 죽도점,경상북도 포항시 북구 중흥로 328,36.0308229,129.3650762,054-288-8000
홈플러스 중계점,서울특별시 노원구 동일로 204가길 12,37.639815,127.0686402,02-986-2080
홈플러스 진접점,경기도 남양주시 진접읍 장현리 216-1,37.7215024,127.1887919,031-570-8000
홈플러스 진주점,경상남도 진주시 대신로 304,35.1875681,128.117722,055-771-8000
홈플러스 진해점,경상남도 창원시 진해구 충장로 356,35.1531941,128.6911787,055-540-8000
홈플러스 창원점,경상남도 창원시 의창구 창원대로 415,35.2340317,128.6436323,055-270-8000
홈플러스 천안신방점,충청남도 천안시 동남구 신촌1길 23,36.7871202,127.1205669,041-552-2080
홈플러스 천안점,충청남도 천안시 동남구 천안대로 574 (구성동),36.7991008,127.1655385,041-590-8000
홈플러스 청주성안점,충청북도 청주시 상당구 사직대로 346,36.6359802,127.4857896,043-259-2080
홈플러스 청주점,충청북도 청주시 흥덕구 서부로 1291,36.6153736,127.4422122,043-251-8000
홈플러스 춘천점,강원도 춘천시 김유정로 1840,37.8505752,127.7347271,033-269-8000
홈플러스 칠곡점,대구광역시 북구 동암로12길 8,35.944848,128.5559605,053-607-8000
홈플러스 킨텍스점,경기도 고양시 일산서구 호수로 817,37.6677307,126.7510438,031-960-7000
홈플러스 파주문산점,경기도 파주시 문산읍 방촌로 1759,37.869827,126.7855122,031-960-8000
홈플러스 파주운정점,경기도 파주시 청암로 17번길 17 (목동동927번지),37.7224357,126.7441741,031-8035-1300
홈플러스 평촌점,경기도 안양시 동안구 동안로 162,37.3934571,126.9511178,031-470-8000
홈플러스 평택안중점,경기도 평택시 안중읍 서동대로 1489,36.9901995,126.91638,031-8046-8200
홈플러스 포천송우점,경기도 포천시 소흘읍 솔모루로 9,37.8242646,127.1412717,031-540-7000
홈플러스 포항점,경상북도 포항시 남구 중흥로 77,36.0127506,129.348903,054-249-2080
홈플러스 합정점,서울특별시 마포구 양화로 45,37.5489656,126.9134767,02-6938-8800
홈플러스 해운대점,부산광역시 해운대구 해운대해변로 140,35.1584328,129.1464512,051-532-2080
홈플러스 화성동탄점,경기도 화성시 동탄중앙로 200,37.202769,127.0684906,031-8015-7000
홈플러스 화성향남점,경기도 화성시 향남읍 향남로 402,37.1306958,126.9218482,031-8059-8700
탑마트 영도봉래점,부산광역시 영도구 태종로 194,35.0942098,129.049444,051)418-2102~3
탑마트 진영점,경상남도 김해시 진영읍 진영로 221,35.3026702,128.7369281,055)345-0388~9
탑마트 금사점,부산광역시 금정구 공단서로 22 (강산병원 옆),35.2169752,129.1107829,051)527-2222
탑마트 통영점,경상남도 통영시 미수해안로 164-13 (봉평오거리 옆),34.8321573,128.4139597,055)648-8161~3
탑마트 진주점,경상남도 진주시 도동로 251,35.192582,128.1212981,055)762-2571~5
탑마트 사직점,부산광역시 동래구 사직북로33번길 34 (국민시장 내),35.198454,129.0589333,051)501-5810
탑마트 신평점,부산광역시 사하구 하신중앙로 210,35.0969785,128.9621297,051)293-8483~4
탑마트 신촌점,경상남도 밀양시 창밀로 3561,35.5046452,128.7381468,055)356-5535~6
탑마트 구산점,경상남도 김해시 구산로 50 (구산고 밑),35.248532,128.8741613,055)325-6283~4
탑마트 연제점,부산광역시 연제구 중앙대로 1174 구)피자헛 연산점 자리,35.1925,129.0805556,051)504-9551~2
탑마트 반여점,부산광역시 해운대구 선수촌로 119,35.2040857,129.1198596,051)525-0422
탑마트 고성점,경상남도 고성군 고성읍 성내로 28,34.9763143,128.312558,055)674-8131~2
탑마트 기장점,부산광역시 기장군 기장읍 대청로71번길 5 (기장병원 옆),35.237127,129.2174446,051)722-1001
탑마트 감만점,부산광역시 남구 홍곡로 3 (감만상가아파트 지하),35.1163155,129.0817636,051)635-8580
탑마트 삼천포점,경상남도 사천시 새시장길 19 (삼천포종합시장 내),34.9321768,128.079158,055)835-4115~7
탑마트 화명점,부산광역시 북구 금곡대로 270 (대림아파트상가 지하),35.231229,129.0155998,051)363-5332
탑마트 삼문점,경상남도 밀양시 삼문중앙로 13 (삼문동 주민센터 옆),35.4841191,128.7537941,055)353-2220
탑마트 경주동부점,경상북도 경주시 중앙로 60,35.8453254,129.2119898,054-749-2007
탑마트 다대점,부산광역시 사하구 다대로554번길 7,35.056924,128.970333,"051)262-3072,9"
탑마트 마산점,경상남도 창원시 마산합포구 오동동14길 29 (기산아파트 1층),35.2052561,128.5808397,055)222-9206~7
탑마트 김해점,경상남도 김해시 가락로 83,35.2341686,128.8812075,055)336-6847
탑마트 양산북부점,경상남도 양산시 북안북7길 28 (양산중학교 옆),35.350134,129.042281,055)384-4991~2
탑마트 언양점,울산광역시 울주군 언양읍 헌양길 117,35.5655308,129.1193619,052)264-0244
탑마트 당리점,부산광역시 사하구 낙동대로 353 (에디스 여성병원 옆),35.1014992,128.9778828,051)291-0035
탑마트 사천점,경상남도 사천시 정동면 옥산로 38,35.0790548,128.087309,055)852-5988
탑마트 신다대점,부산광역시 사하구 다송로 58 (롯데캐슬블루 앞),35.0649311,128.9808857,051)266-8255~6
탑마트 양산범어점,경상남도 양산시 물금읍 황산로 653,35.3303494,129.0047106,055)385-9030
탑마트 해운대점,부산광역시 해운대구 좌동로 38,35.1689104,129.1711377,051)704-9009
탑마트 기장서부점,부산광역시 기장군 기장읍 읍내로 49 (서부주공아파트 앞),35.2441605,129.2095439,051)724-2828
탑마트 진주주약점,경상남도 진주시 진주대로 784 (촉석골프랜드 옆),35.1717662,128.0959941,055)762-7557
탑마트 삼방점,경상남도 김해시 활천로255번길 16,35.2441413,128.9074768,055)324-6272
탑마트 반송점,부산광역시 해운대구 윗반송로 8,35.2296834,129.1505594,051)545-3217
탑마트 포항유강점,경상북도 포항시 남구 연일읍 유강길9번길 35,36.0033948,129.316056,054)272-8300
탑마트 경주황성점,경상북도 경주시 용담로104번길 25 (현대1차 후문 앞),35.8664878,129.2110431,054)744-5588
탑마트 울산화봉점,울산광역시 북구 화봉로 79 (화봉파출소 옆),35.5886227,129.3681305,052)288-3877
탑마트 울산남창점,울산광역시 울주군 온양읍 연안2길 7 (상아1차 앞),35.4094757,129.2821159,052)237-6633
탑마트 양산북정점,경상남도 양산시 삼성5길 11-12,35.3566832,129.0413971,055)363-4477
탑마트 김해삼계점,경상남도 김해시 삼계중앙로 12 (장신대역 옆),35.259728,128.8673265,055)333-3553
탑마트 남부민점,부산광역시 서구 충무대로 246,35.0926611,129.0244828,051)244-1221
탑마트 마산호계점,경상남도 창원시 마산회원구 내서읍 호계안길 97 (동서병원 옆),35.2587757,128.5218685,055)231-0031
탑마트 울산천상점,울산광역시 울주군 범서읍 천상길 34,35.5615484,129.2276439,052)212-9889
탑마트 진해점,경상남도 창원시 진해구 충장로523번길 7 (동진여중 밑),35.1430155,128.7021315,055)544-2662
탑마트 장승포점,경상남도 거제시 신부로 42-15,34.8710643,128.7304181,055)682-5485~6
탑마트 포항우현점,경상북도 포항시 북구 중앙로419번길 29,36.0500666,129.359066,054)232-5201
탑마트 밀양가곡점,경상남도 밀양시 가곡7길 24 (밀양한전 옆),35.4737386,128.7655954,055)356-2001
탑마트 김해외동점,경상남도 김해시 분성로 104 (중앙병원 옆),35.2305547,128.858284,055)339-5900
탑마트 장림점,부산광역시 사하구 다대로 296 (신장림역 3번출구),35.0758798,128.9762832,051)262-1991
탑마트 영도동삼점,부산광역시 영도구 동삼로 56,35.0783481,129.070773,051)405-8000
탑마트 구포점,부산광역시 북구 백양대로 1052 (맥도날드 구남점 맞은편),35.1989413,128.9971872,051)331-3000
탑마트 포항죽도점,경상북도 포항시 북구 죽도로 90,36.032985,129.3702896,054)281-4800
탑마트 창원반지점,경상남도 창원시 성산구 창원천로 292 (대동그린코아상가),35.2452893,128.6697888,055)276-8600
탑마트 통영죽림점,경상남도 통영시 광도면 신죽1길 18 (죽림초 앞),34.8766157,128.4154678,055)643-5112
탑마트 진주호탄점,경상남도 진주시 동부로 73 (경남정보고 맞은편),35.1618691,128.1149155,055)762-2442
탑마트 창원동읍점,경상남도 창원시 의창구 동읍 동읍로 1-10,35.2776345,128.6833987,055)255-0707
탑마트 안강점,경상북도 경주시 안강읍 비화동길 41,35.9885536,129.2256744,054)761-3113
탑마트 현풍점,대구광역시 달성군 현풍읍 현풍로 10길 74,35.6930745,128.4449876,053)617-7557
탑마트 온천점,부산광역시 동래구 아시아드대로 215,35.2034664,129.066253,051)504-8100
탑마트 창녕점,경상남도 창녕군 창녕읍 술정동탑길 4,35.5377104,128.495966,055)533-4664
탑마트 포항문덕점,경상북도 포항시 남구 오천읍 원동로 33 (원동초 후문 앞),35.9663618,129.4020101,054)291-8899
탑마트 감천점,부산광역시 사하구 감천로 29,35.0918859,128.9961411,051)202-3555
탑마트 청도점,경상북도 청도군 청도읍 고수동4길 7-11,35.6424951,128.7456357,054)373-8223
탑마트 진주금산점,경상남도 진주시 금산면 금산순환로 36,35.2172349,128.1482959,055)755-6336
탑마트 영천점,경상북도 영천시 동부로 64 (참편한요양병원 옆),35.9761557,128.9481168,054)336-6767
탑마트 서대신점,부산광역시 서구 대영로 5 (서대신역 4번출구),35.110912,129.012058,051)255-0022
탑마트 울산구영점,울산광역시 울주군 범서읍 점촌5길 6 (울주경찰서 뒤),35.5699881,129.2423486,052)244-6606
탑마트 초량점,"부산광역시 동구 초량로13번길 53 (구, 남선창고)",35.1167718,129.0395023,051)466-2112
탑마트 마산석전점,경상남도 창원시 마산회원구 양덕옛2길 13 (우성아파트 앞),35.2290836,128.576413,055)255-3223
탑마트 남산점,부산광역시 금정구 금샘로 456(남산동) (남산성당 옆),35.2636583,129.0854251,051)515-9696
탑마트 뉴창원점,경상남도 창원시 의창구 사화로17번길 3 (창원역 맞은편),35.2575081,128.6094808,055)299-1991
탑마트 정관점,부산광역시 기장군 정관면 산단1로 133 (삼성자동차서비스 옆),35.3147386,129.1781594,051)727-5766
탑마트 진주충무공점,경상남도 진주시 에나로 128번길 28 (LH본사 정문사거리 앞),35.1778697,128.1472593,055-742-1260
탑마트 장유관동점,경상남도 김해시 덕정로 85,35.1798776,128.7946888,055-337-6133
탑마트 서진주점,경상남도 진주시 새평거로 136 (평거동 921),35.1813916,128.0697983,055)743-6300
탑마트 대구점,대구광역시 중구 중앙대로 66길 20 (효성해링턴 지하),35.8620735,128.5946855,053)251-5000
탑마트 물금역점,"경상남도 양산시 물금읍 물금중앙길 18 (구, 물금시장)",35.3099263,128.984952,055-387-3008
탑마트 경주용강점,경상북도 경주시 산업로 4348 (용강동),35.8705357,129.2319394,054)744-5501~2
탑마트 부곡점,부산광역시 금정구 부곡동 79 (부곡동 333-1),35.2231405,129.0905653,051)583-1501~2
